start=new Date('2023-03-30T00:00:00.000Z').valueOf();
sats=[{"CLASSIFICATION_TYPE":"U","GP_ID":"229139251","TLE_LINE2":"2 52105  53.2171 228.8616 0001298  83.3881 276.7259 15.08857910 58362","MEAN_MOTION_DOT":"0.00013828","BSTAR":"0.00088478000000","NORAD_CAT_ID":"52105","EPOCH":"2023-03-29T19:49:26.114016","TIME_SYSTEM":"UTC","SITE":"AFETR","MEAN_MOTION":"15.08857910","EPHEMERIS_TYPE":"0","INCLINATION":"53.2171","PERIAPSIS":"538.793","PERIOD":"95.436","TLE_LINE1":"1 52105U 22029T   23088.82599669  .00013828  00000-0  88478-3 0  9993","ARG_OF_PERICENTER":"83.3881","REF_FRAME":"TEME","SEMIMAJOR_AXIS":"6917.826","OBJECT_NAME":"STARLINK-3706","REV_AT_EPOCH":"5836","MEAN_MOTION_DDOT":"0.0000000000000","APOAPSIS":"540.589","LAUNCH_DATE":"2022-03-19","OBJECT_TYPE":"PAYLOAD","ELEMENT_SET_NO":"999","RA_OF_ASC_NODE":"228.8616","MEAN_ELEMENT_THEORY":"SGP4","OBJECT_ID":"2022-029T","FILE":"3874790","RCS_SIZE":"LARGE","ECCENTRICITY":"0.00012980","DECAY_DATE":null,"COUNTRY_CODE":"US","MEAN_ANOMALY":"276.7259","CENTER_NAME":"EARTH"},{"MEAN_MOTION_DDOT":"0.0000000000000","OBJECT_TYPE":"PAYLOAD","ELEMENT_SET_NO":"999","LAUNCH_DATE":"2022-03-19","APOAPSIS":"540.715","SEMIMAJOR_AXIS":"6917.829","ARG_OF_PERICENTER":"108.0372","REF_FRAME":"TEME","OBJECT_NAME":"STARLINK-3670","REV_AT_EPOCH":"5823","COUNTRY_CODE":"US","DECAY_DATE":null,"CENTER_NAME":"EARTH","MEAN_ANOMALY":"252.0781","FILE":"3874790","RCS_SIZE":"LARGE","RA_OF_ASC_NODE":"238.7740","MEAN_ELEMENT_THEORY":"SGP4","OBJECT_ID":"2022-029U","ECCENTRICITY":"0.00014760","NORAD_CAT_ID":"52106","TLE_LINE2":"2 52106  53.2157 238.7740 0001476 108.0372 252.0781 15.08856891 58233","GP_ID":"229140003","BSTAR":"0.00039801000000","MEAN_MOTION_DOT":"0.00006055","EPOCH":"2023-03-29T20:18:31.464864","TIME_SYSTEM":"UTC","CLASSIFICATION_TYPE":"U","PERIOD":"95.436","TLE_LINE1":"1 52106U 22029U   23088.84619751  .00006055  00000-0  39801-3 0  9991","SITE":"AFETR","INCLINATION":"53.2157","PERIAPSIS":"538.673","MEAN_MOTION":"15.08856891","EPHEMERIS_TYPE":"0"},{"MEAN_MOTION_DDOT":"0.0000000000000","OBJECT_TYPE":"PAYLOAD","ELEMENT_SET_NO":"999","APOAPSIS":"540.598","LAUNCH_DATE":"2022-03-19","SEMIMAJOR_AXIS":"6917.846","ARG_OF_PERICENTER":"100.0252","REF_FRAME":"TEME","OBJECT_NAME":"STARLINK-3658","REV_AT_EPOCH":"5836","COUNTRY_CODE":"US","DECAY_DATE":null,"CENTER_NAME":"EARTH","MEAN_ANOMALY":"260.0885","FILE":"3874790","RCS_SIZE":"LARGE","OBJECT_ID":"2022-029V","RA_OF_ASC_NODE":"228.8815","MEAN_ELEMENT_THEORY":"SGP4","ECCENTRICITY":"0.00012820","NORAD_CAT_ID":"52107","TLE_LINE2":"2 52107  53.2153 228.8815 0001282 100.0252 260.0885 15.08851244 58362","BSTAR":"0.00127010000000","GP_ID":"229139749","MEAN_MOTION_DOT":"0.00019990","EPOCH":"2023-03-29T19:42:45.465120","TIME_SYSTEM":"UTC","CLASSIFICATION_TYPE":"U","PERIOD":"95.437","TLE_LINE1":"1 52107U 22029V   23088.82135955  .00019990  00000-0  12701-2 0  9990","SITE":"AFETR","INCLINATION":"53.2153","PERIAPSIS":"538.824","MEAN_MOTION":"15.08851244","EPHEMERIS_TYPE":"0"},{"ARG_OF_PERICENTER":"112.5907","REF_FRAME":"TEME","SEMIMAJOR_AXIS":"6917.774","OBJECT_NAME":"STARLINK-3698","REV_AT_EPOCH":"5837","MEAN_MOTION_DDOT":"0.0000000000000","APOAPSIS":"540.421","LAUNCH_DATE":"2022-03-19","ELEMENT_SET_NO":"999","OBJECT_TYPE":"PAYLOAD","OBJECT_ID":"2022-029W","RA_OF_ASC_NODE":"228.5491","MEAN_ELEMENT_THEORY":"SGP4","RCS_SIZE":"LARGE","FILE":"3874736","ECCENTRICITY":"0.00011300","DECAY_DATE":null,"COUNTRY_CODE":"US","MEAN_ANOMALY":"247.5205","CENTER_NAME":"EARTH","CLASSIFICATION_TYPE":"U","MEAN_MOTION_DOT":"0.00011052","TLE_LINE2":"2 52108  53.2138 228.5491 0001130 112.5907 247.5205 15.08874761 58376","GP_ID":"229114874","BSTAR":"0.00071070000000","NORAD_CAT_ID":"52108","TIME_SYSTEM":"UTC","EPOCH":"2023-03-29T21:28:43.087296","SITE":"AFETR","EPHEMERIS_TYPE":"0","MEAN_MOTION":"15.08874761","PERIAPSIS":"538.857","INCLINATION":"53.2138","PERIOD":"95.435","TLE_LINE1":"1 52108U 22029W   23088.89494314  .00011052  00000-0  71070-3 0  9991"},{"CLASSIFICATION_TYPE":"U","GP_ID":"229138752","TLE_LINE2":"2 52110  53.2165 228.8636 0000987  87.5532 272.5573 15.08867184 58363","BSTAR":"0.00210920000000","MEAN_MOTION_DOT":"0.00033465","NORAD_CAT_ID":"52110","TIME_SYSTEM":"UTC","EPOCH":"2023-03-29T19:48:03.142368","SITE":"AFETR","EPHEMERIS_TYPE":"0","MEAN_MOTION":"15.08867184","PERIAPSIS":"538.980","INCLINATION":"53.2165","PERIOD":"95.436","TLE_LINE1":"1 52110U 22029Y   23088.82503637  .00033465  00000-0  21092-2 0  9996","ARG_OF_PERICENTER":"87.5532","REF_FRAME":"TEME","SEMIMAJOR_AXIS":"6917.797","OBJECT_NAME":"STARLINK-3687","REV_AT_EPOCH":"5836","MEAN_MOTION_DDOT":"0.0000000000000","APOAPSIS":"540.345","LAUNCH_DATE":"2022-03-19","ELEMENT_SET_NO":"999","OBJECT_TYPE":"PAYLOAD","RA_OF_ASC_NODE":"228.8636","MEAN_ELEMENT_THEORY":"SGP4","OBJECT_ID":"2022-029Y","RCS_SIZE":"LARGE","FILE":"3874790","ECCENTRICITY":"0.00009870","DECAY_DATE":null,"COUNTRY_CODE":"US","MEAN_ANOMALY":"272.5573","CENTER_NAME":"EARTH"},{"TIME_SYSTEM":"UTC","EPOCH":"2023-03-29T16:16:04.921536","GP_ID":"229139504","TLE_LINE2":"2 52111  53.2139 229.5282 0001027  80.6911 279.4197 15.08854384 58345","BSTAR":"0.00014201000000","MEAN_MOTION_DOT":"0.00001974","NORAD_CAT_ID":"52111","CLASSIFICATION_TYPE":"U","TLE_LINE1":"1 52111U 22029Z   23088.67783474  .00001974  00000-0  14201-3 0  9994","PERIOD":"95.437","EPHEMERIS_TYPE":"0","MEAN_MOTION":"15.08854384","PERIAPSIS":"538.991","INCLINATION":"53.2139","SITE":"AFETR","LAUNCH_DATE":"2022-03-19","APOAPSIS":"540.412","ELEMENT_SET_NO":"999","OBJECT_TYPE":"PAYLOAD","MEAN_MOTION_DDOT":"0.0000000000000","REV_AT_EPOCH":"5834","OBJECT_NAME":"STARLINK-3708","REF_FRAME":"TEME","ARG_OF_PERICENTER":"80.6911","SEMIMAJOR_AXIS":"6917.836","MEAN_ANOMALY":"279.4197","CENTER_NAME":"EARTH","DECAY_DATE":null,"COUNTRY_CODE":"US","ECCENTRICITY":"0.00010270","MEAN_ELEMENT_THEORY":"SGP4","RA_OF_ASC_NODE":"229.5282","OBJECT_ID":"2022-029Z","RCS_SIZE":"LARGE","FILE":"3874790"},{"REV_AT_EPOCH":"5836","OBJECT_NAME":"STARLINK-3734","ARG_OF_PERICENTER":"92.6241","REF_FRAME":"TEME","SEMIMAJOR_AXIS":"6917.785","LAUNCH_DATE":"2022-03-19","APOAPSIS":"540.319","OBJECT_TYPE":"PAYLOAD","ELEMENT_SET_NO":"999","MEAN_MOTION_DDOT":"0.0000000000000","ECCENTRICITY":"0.00009670","RA_OF_ASC_NODE":"228.8974","OBJECT_ID":"2022-029AA","MEAN_ELEMENT_THEORY":"SGP4","FILE":"3874790","RCS_SIZE":"LARGE","MEAN_ANOMALY":"267.4862","CENTER_NAME":"EARTH","DECAY_DATE":null,"COUNTRY_CODE":"US","CLASSIFICATION_TYPE":"U","EPOCH":"2023-03-29T19:37:27.444000","TIME_SYSTEM":"UTC","MEAN_MOTION_DOT":"0.00036419","TLE_LINE2":"2 52112  53.2147 228.8974 0000967  92.6241 267.4862 15.08871086 58362","GP_ID":"229140249","BSTAR":"0.00229260000000","NORAD_CAT_ID":"52112","MEAN_MOTION":"15.08871086","EPHEMERIS_TYPE":"0","INCLINATION":"53.2147","PERIAPSIS":"538.981","SITE":"AFETR","TLE_LINE1":"1 52112U 22029AA  23088.81767875  .00036419  00000-0  22926-2 0  9992","PERIOD":"95.436"},{"OBJECT_NAME":"STARLINK-3736","REV_AT_EPOCH":"5837","REF_FRAME":"TEME","ARG_OF_PERICENTER":"76.0725","SEMIMAJOR_AXIS":"6917.819","LAUNCH_DATE":"2022-03-19","APOAPSIS":"540.536","OBJECT_TYPE":"PAYLOAD","ELEMENT_SET_NO":"999","MEAN_MOTION_DDOT":"0.0000000000000","ECCENTRICITY":"0.00012320","RA_OF_ASC_NODE":"228.6647","OBJECT_ID":"2022-029AB","MEAN_ELEMENT_THEORY":"SGP4","FILE":"3874790","RCS_SIZE":"LARGE","MEAN_ANOMALY":"284.0404","CENTER_NAME":"EARTH","DECAY_DATE":null,"COUNTRY_CODE":"US","CLASSIFICATION_TYPE":"U","EPOCH":"2023-03-29T20:51:38.460096","TIME_SYSTEM":"UTC","TLE_LINE2":"2 52113  53.2152 228.6647 0001232  76.0725 284.0404 15.08860016 58372","BSTAR":"0.00029174000000","GP_ID":"229138504","MEAN_MOTION_DOT":"0.00004361","NORAD_CAT_ID":"52113","MEAN_MOTION":"15.08860016","EPHEMERIS_TYPE":"0","INCLINATION":"53.2152","PERIAPSIS":"538.832","SITE":"AFETR","TLE_LINE1":"1 52113U 22029AB  23088.86919514  .00004361  00000-0  29174-3 0  9991","PERIOD":"95.436"},{"OBJECT_NAME":"STARLINK-3737","REV_AT_EPOCH":"5834","REF_FRAME":"TEME","ARG_OF_PERICENTER":"77.1960","SEMIMAJOR_AXIS":"6917.812","APOAPSIS":"540.383","LAUNCH_DATE":"2022-03-19","ELEMENT_SET_NO":"999","OBJECT_TYPE":"PAYLOAD","MEAN_MOTION_DDOT":"0.0000000000000","ECCENTRICITY":"0.00010200","MEAN_ELEMENT_THEORY":"SGP4","RA_OF_ASC_NODE":"229.5105","OBJECT_ID":"2022-029AC","RCS_SIZE":"LARGE","FILE":"3874790","MEAN_ANOMALY":"282.9146","CENTER_NAME":"EARTH","DECAY_DATE":null,"COUNTRY_CODE":"US","CLASSIFICATION_TYPE":"U","TIME_SYSTEM":"UTC","EPOCH":"2023-03-29T16:21:23.365152","GP_ID":"229139252","TLE_LINE2":"2 52114  53.2147 229.5105 0001020  77.1960 282.9146 15.08862314 58344","MEAN_MOTION_DOT":"0.00027547","BSTAR":"0.00174110000000","NORAD_CAT_ID":"52114","EPHEMERIS_TYPE":"0","MEAN_MOTION":"15.08862314","PERIAPSIS":"538.972","INCLINATION":"53.2147","SITE":"AFETR","TLE_LINE1":"1 52114U 22029AC  23088.68152043  .00027547  00000-0  17411-2 0  9999","PERIOD":"95.436"},{"EPOCH":"2023-03-29T20:41:02.980320","TIME_SYSTEM":"UTC","TLE_LINE2":"2 52115  53.2128 228.6988 0001247  97.8603 262.2531 15.08864402 58379","GP_ID":"229140004","BSTAR":"0.00181650000000","MEAN_MOTION_DOT":"0.00028759","NORAD_CAT_ID":"52115","CLASSIFICATION_TYPE":"U","TLE_LINE1":"1 52115U 22029AD  23088.86184005  .00028759  00000-0  18165-2 0  9996","PERIOD":"95.436","MEAN_MOTION":"15.08864402","EPHEMERIS_TYPE":"0","INCLINATION":"53.2128","PERIAPSIS":"538.808","SITE":"AFETR","APOAPSIS":"540.533","LAUNCH_DATE":"2022-03-19","OBJECT_TYPE":"PAYLOAD","ELEMENT_SET_NO":"999","MEAN_MOTION_DDOT":"0.0000000000000","OBJECT_NAME":"STARLINK-3685","REV_AT_EPOCH":"5837","ARG_OF_PERICENTER":"97.8603","REF_FRAME":"TEME","SEMIMAJOR_AXIS":"6917.806","MEAN_ANOMALY":"262.2531","CENTER_NAME":"EARTH","DECAY_DATE":null,"COUNTRY_CODE":"US","ECCENTRICITY":"0.00012470","MEAN_ELEMENT_THEORY":"SGP4","RA_OF_ASC_NODE":"228.6988","OBJECT_ID":"2022-029AD","FILE":"3874790","RCS_SIZE":"LARGE"}];
